     2.11           G: GLONASS NAV DATA                     RINEX VERSION / TYPE
teqc  2018Jul24     UNAVCO Archive Ops  20180730 00:23:39UTCPGM / RUN BY / DATE
Solaris x86 5.10|AMD64|cc SC5.8 -xarch=amd64|=+|=+          COMMENT
  2018     7    29    9.313225746155D-10                    CORR TO SYSTEM TIME
                                                            END OF HEADER
17 18  7 29  2 45  0.0 1.516472548246D-04 2.728484105319D-12 9.390000000000D+03
   -1.363320117188D+04-1.378845214844D+00-1.862645149231D-09 0.000000000000D+00
   -5.517979003906D+03-2.501692771912D+00 2.793967723846D-09 4.000000000000D+00
    2.083233496094D+04-1.568320274353D+00-0.000000000000D+00 0.000000000000D+00
10 18  7 29  2 45  0.0 2.872198820114D-05 0.000000000000D+00 1.035000000000D+04
    1.556775390625D+04-1.497033119202D+00 9.313225746155D-10 0.000000000000D+00
   -8.237227050781D+03 2.046184539795D+00-0.000000000000D+00-7.000000000000D+00
    1.847380761719D+04 2.163584709167D+00-2.793967723846D-09 0.000000000000D+00
17 18  7 29  3 15  0.0 1.516528427601D-04 2.728484105319D-12 1.080000000000D+04
   -1.622023242188D+04-1.453214645386D+00-9.313225746155D-10 0.000000000000D+00
   -9.474224121094D+03-1.868568420410D+00 2.793967723846D-09 4.000000000000D+00
    1.723978222656D+04-2.397545814514D+00-0.000000000000D+00 0.000000000000D+00
 2 18  7 29  3 15  0.0 3.219898790121D-04 1.818989403546D-12 1.080000000000D+04
   -1.570436230469D+04 2.547943115234D+00-9.313225746155D-10 0.000000000000D+00
   -7.539367187500D+03-1.155576705933D-01 2.793967723846D-09-4.000000000000D+00
    1.869627148438D+04 2.093790054321D+00-0.000000000000D+00 0.000000000000D+00
 1 18  7 29  3 15  0.0 2.974271774292D-05 0.000000000000D+00 1.080000000000D+04
    5.570714843750D+03 3.012401580811D+00 0.000000000000D+00 0.000000000000D+00
   -1.134428662109D+04-3.442840576172D-01 0.000000000000D+00 1.000000000000D+00
    2.216618359375D+04-9.319963455200D-01-2.793967723846D-09 0.000000000000D+00
10 18  7 29  3 15  0.0 2.872291952372D-05 0.000000000000D+00 1.107000000000D+04
    1.296257470703D+04-1.357318878174D+00-0.000000000000D+00 0.000000000000D+00
   -3.997619628906D+03 2.634632110596D+00-0.000000000000D+00-7.000000000000D+00
    2.160487109375D+04 1.292587280273D+00-2.793967723846D-09 0.000000000000D+00
17 18  7 29  3 45  0.0 1.516574993730D-04 2.728484105319D-12 1.260000000000D+04
   -1.870260400391D+04-1.258840560913D+00 0.000000000000D+00 0.000000000000D+00
   -1.218587109375D+04-1.137587547302D+00 2.793967723846D-09 4.000000000000D+00
    1.231256445312D+04-3.041590690613D+00-0.000000000000D+00 0.000000000000D+00
 2 18  7 29  3 45  0.0 3.219936043024D-04 1.818989403546D-12 1.260000000000D+04
   -1.075590136719D+04 2.902465820312D+00-0.000000000000D+00 0.000000000000D+00
   -8.152098632812D+03-5.773906707764D-01 1.862645149231D-09-4.000000000000D+00
    2.169783593750D+04 1.219731330872D+00-9.313225746155D-10 0.000000000000D+00
10 18  7 29  3 45  0.0 2.872385084629D-05 0.000000000000D+00 1.260000000000D+04
    1.080642822266D+04-1.010396957397D+00-9.313225746155D-10 0.000000000000D+00
    1.112630859375D+03 2.999475479126D+00 0.000000000000D+00-7.000000000000D+00
    2.306615869141D+04 3.202590942383D-01-1.862645149231D-09 0.000000000000D+00
 1 18  7 29  3 45  0.0 2.974458038807D-05 0.000000000000D+00 1.266000000000D+04
    1.066004687500D+04 2.598633766174D+00 9.313225746155D-10 0.000000000000D+00
   -1.229725732422D+04-6.910724639893D-01-9.313225746155D-10 1.000000000000D+00
    1.965430517578D+04-1.840860366821D+00-2.793967723846D-09 0.000000000000D+00
18 18  7 29  3 45  0.0 2.047084271908D-04 9.094947017729D-13 1.296000000000D+04
   -1.199025537109D+04-2.106016159058D+00-1.862645149231D-09 0.000000000000D+00
    2.015505371094D+03-2.238104820251D+00 2.793967723846D-09-3.000000000000D+00
    2.243946044922D+04-9.192228317261D-01-0.000000000000D+00 0.000000000000D+00
11 18  7 29  3 45  0.0-3.602541983128D-05-0.000000000000D+00 1.296000000000D+04
    1.270407324219D+04-7.262039184570D-01 1.862645149231D-09 0.000000000000D+00
   -1.678137646484D+04 1.841013908386D+00-9.313225746155D-10 0.000000000000D+00
    1.446637890625D+04 2.771554946899D+00-2.793967723846D-09 0.000000000000D+00
12 18  7 29  3 45  0.0-3.428198397160D-05-0.000000000000D+00 1.434000000000D+04
    7.388579101562D+03-1.605997085571D-01 3.725290298462D-09 0.000000000000D+00
   -2.437735986328D+04-8.490848541260D-02-1.862645149231D-09-1.000000000000D+00
   -2.515927734375D+02 3.584525108337D+00-1.862645149231D-09 0.000000000000D+00
 2 18  7 29  4 15  0.0 3.219982609153D-04 1.818989403546D-12 1.440000000000D+04
   -5.435871582031D+03 2.957889556885D+00-0.000000000000D+00 0.000000000000D+00
   -9.629639160156D+03-1.058469772339D+00 9.313225746155D-10-4.000000000000D+00
    2.303070361328D+04 2.515802383423D-01-1.862645149231D-09 0.000000000000D+00
17 18  7 29  4 15  0.0 1.516630873084D-04 2.728484105319D-12 1.440000000000D+04
   -2.059057177734D+04-7.968807220459D-01 9.313225746155D-10 0.000000000000D+00
   -1.358006005859D+04-4.238948822021D-01 1.862645149231D-09 4.000000000000D+00
    6.431637695312D+03-3.450279235840D+00-0.000000000000D+00 0.000000000000D+00
18 18  7 29  4 15  0.0 2.047047019005D-04 9.094947017729D-13 1.440000000000D+04
   -1.586747753906D+04-2.155771255493D+00-0.000000000000D+00 0.000000000000D+00
   -1.528820800781D+03-1.677983283997D+00 2.793967723846D-09-3.000000000000D+00
    1.994049609375D+04-1.839292526245D+00-0.000000000000D+00 0.000000000000D+00
11 18  7 29  4 15  0.0-3.602635115385D-05-0.000000000000D+00 1.440000000000D+04
    1.151793652344D+04-5.555973052979D-01 0.000000000000D+00 0.000000000000D+00
   -1.283577929688D+04 2.513444900513D+00-9.313225746155D-10 0.000000000000D+00
    1.883371777344D+04 2.049616813660D+00-2.793967723846D-09 0.000000000000D+00
12 18  7 29  4 15  0.0-3.428384661674D-05-0.000000000000D+00 1.440000000000D+04
    6.927720703125D+03-3.099813461304D-01 2.793967723846D-09 0.000000000000D+00
   -2.373566162109D+04 8.008308410645D-01-1.862645149231D-09-1.000000000000D+00
    6.126600097656D+03 3.456142425537D+00-2.793967723846D-09 0.000000000000D+00
 1 18  7 29  4 15  0.0 2.973619848490D-05 0.000000000000D+00 1.440000000000D+04
    1.479014941406D+04 1.959901809692D+00 9.313225746155D-10 0.000000000000D+00
   -1.372306201172D+04-8.571195602417D-01-1.862645149231D-09 1.000000000000D+00
    1.562463037109D+04-2.607517242432D+00-2.793967723846D-09 0.000000000000D+00
10 18  7 29  4 15  0.0 2.872478216887D-05 0.000000000000D+00 1.440000000000D+04
    9.396762695312D+03-5.447559356689D-01-1.862645149231D-09 0.000000000000D+00
    6.625943359375D+03 3.074877738953D+00 9.313225746155D-10-7.000000000000D+00
    2.274195849609D+04-6.783962249756D-01-1.862645149231D-09 0.000000000000D+00
 2 18  7 29  4 45  0.0 3.220029175282D-04 1.818989403546D-12 1.620000000000D+04
   -2.844550781250D+02 2.719889640808D+00 0.000000000000D+00 0.000000000000D+00
   -1.190942578125D+04-1.451366424561D+00 0.000000000000D+00-4.000000000000D+00
    2.259144580078D+04-7.366447448730D-01-2.793967723846D-09 0.000000000000D+00
18 18  7 29  4 45  0.0 2.047084271908D-04 9.094947017729D-13 1.620000000000D+04
   -1.957741796875D+04-1.917739868164D+00 0.000000000000D+00 0.000000000000D+00
   -3.979172851562D+03-1.041367530823D+00 2.793967723846D-09-3.000000000000D+00
    1.590368652344D+04-2.616935729980D+00-0.000000000000D+00 0.000000000000D+00
12 18  7 29  4 45  0.0-3.428477793932D-05-0.000000000000D+00 1.638000000000D+04
    6.421928222656D+03-2.121105194092D-01 1.862645149231D-09 0.000000000000D+00
   -2.151980224609D+04 1.644354820251D+00-1.862645149231D-09-1.000000000000D+00
    1.202913525391D+04 3.059496879578D+00-2.793967723846D-09 0.000000000000D+00
 2 18  7 29  5 15  0.0 3.220066428185D-04 1.818989403546D-12 1.800000000000D+04
    4.208829589844D+03 2.238273620605D+00 0.000000000000D+00 0.000000000000D+00
   -1.474410058594D+04-1.661146163940D+00-0.000000000000D+00-4.000000000000D+00
    2.041226611328D+04-1.669194221497D+00-2.793967723846D-09 0.000000000000D+00
12 18  7 29  5 15  0.0-3.428664058447D-05-0.000000000000D+00 1.800000000000D+04
    6.294142578125D+03 1.011028289795D-01 0.000000000000D+00 0.000000000000D+00
   -1.790942382812D+04 2.332943916321D+00-9.313225746155D-10-1.000000000000D+00
    1.699812207031D+04 2.425698280334D+00-2.793967723846D-09 0.000000000000D+00
18 18  7 29  5 15  0.0 2.047112211585D-04 1.818989403546D-12 1.800000000000D+04
   -2.260323535156D+04-1.401069641113D+00 9.313225746155D-10 0.000000000000D+00
   -5.300058105469D+03-4.415788650513D-01 1.862645149231D-09-3.000000000000D+00
    1.064105175781D+04-3.192562103271D+00-0.000000000000D+00 0.000000000000D+00
12 18  7 29  5 45  0.0-3.428850322962D-05-0.000000000000D+00 1.980000000000D+04
    6.872639648438D+03 5.579557418823D-01-0.000000000000D+00 0.000000000000D+00
   -1.326853759766D+04 2.777262687683D+00-0.000000000000D+00-1.000000000000D+00
    2.064884423828D+04 1.604378700256D+00-2.793967723846D-09 0.000000000000D+00
 2 18  7 29  5 45  0.0 3.220057114959D-04 1.818989403546D-12 1.980000000000D+04
    7.678105468750D+03 1.598691940308D+00 0.000000000000D+00 0.000000000000D+00
   -1.773916601562D+04-1.621663093567D+00-1.862645149231D-09-4.000000000000D+00
    1.665904638672D+04-2.474225997925D+00-2.793967723846D-09 0.000000000000D+00
18 18  7 29  5 45  0.0 2.047149464488D-04 1.818989403546D-12 1.980000000000D+04
   -2.448592480469D+04-6.600828170776D-01 1.862645149231D-09 0.000000000000D+00
   -5.653078125000D+03 1.878356933594D-02 9.313225746155D-10-3.000000000000D+00
    4.558500000000D+03-3.522094726562D+00-0.000000000000D+00 0.000000000000D+00
 2 18  7 29  6 15  0.0 3.220094367862D-04 1.818989403546D-12 2.160000000000D+04
    9.933698242188D+03 9.085445404053D-01-0.000000000000D+00 0.000000000000D+00
   -2.041621923828D+04-1.307288169861D+00-2.793967723846D-09-4.000000000000D+00
    1.161933593750D+04-3.089267730713D+00-2.793967723846D-09 0.000000000000D+00
